{
    "links": {
        "self": "http://www.neowsapp.com/rest/v1/neo/3557636?api_key=iIulBulltgU6a56xZRHN4H3l9WmuAYTsLGpBGhQ2"
    },
    "id": "3557636",
    "neo_reference_id": "3557636",
    "name": "(2011 BT59)",
    "designation": "2011 BT59",
    "nasa_jpl_url": "http://ssd.jpl.nasa.gov/sbdb.cgi?sstr=3557636",
    "absolute_magnitude_h": 21.0,
    "estimated_diameter": {
        "kilometers": {
            "estimated_diameter_min": 0.1677084622,
            "estimated_diameter_max": 0.3750075218
        },
        "meters": {
            "estimated_diameter_min": 167.7084621628,
            "estimated_diameter_max": 375.0075217981
        },
        "miles": {
            "estimated_diameter_min": 0.1042091748,
            "estimated_diameter_max": 0.2330187988
        },
        "feet": {
            "estimated_diameter_min": 550.2246310023,
            "estimated_diameter_max": 1230.3396778159
        }
    },
    "is_potentially_hazardous_asteroid": true,
    "close_approach_data": [
        {
            "close_approach_date": "2010-12-19",
            "close_approach_date_full": "2010-Dec-19 06:36",
            "epoch_date_close_approach": 1292740560000,
            "relative_velocity": {
                "kilometers_per_second": "45.5561609012",
                "kilometers_per_hour": "164002.1792443628",
                "miles_per_hour": "101904.5763199209"
            },
            "miss_distance": {
                "astronomical": "0.0458853381",
                "lunar": "17.8493965209",
                "kilometers": "6864348.843989847",
                "miles": "4265308.5866680086"
            },
            "orbiting_body": "Venus"
        },
        {
            "close_approach_date": "2011-01-09",
            "close_approach_date_full": "2011-Jan-09 17:10",
            "epoch_date_close_approach": 1294593000000,
            "relative_velocity": {
                "kilometers_per_second": "27.1732128918",
                "kilometers_per_hour": "97823.5664103835",
                "miles_per_hour": "60783.7599176075"
            },
            "miss_distance": {
                "astronomical": "0.386484784",
                "lunar": "150.342580976",
                "kilometers": "57817300.47381008",
                "miles": "35926004.603455904"
            },
            "orbiting_body": "Earth"
        }
    ],
    "orbital_data": {
        "orbit_id": "9",
        "orbit_determination_date": "2020-05-12 06:39:37",
        "first_observation_date": "2011-01-30",
        "last_observation_date": "2011-02-07",
        "data_arc_in_days": 8,
        "observations_used": 12,
        "orbit_uncertainty": "9",
        "minimum_orbit_intersection": ".0206189",
        "jupiter_tisserand_invariant": "2.546",
        "epoch_osculation": "2455592.5",
        "eccentricity": ".9474061991036239",
        "semi_major_axis": "2.470760126148541",
        "inclination": "3.571678344410544",
        "ascending_node_longitude": "39.2544181207309",
        "orbital_period": "1418.548872148037",
        "perihelion_distance": ".1299466661373615",
        "perihelion_argument": "302.8273824555993",
        "aphelion_distance": "4.811573586159721",
        "perihelion_time": "2455528.531517422405",
        "mean_anomaly": "16.23395159665036",
        "mean_motion": ".2537804703583247",
        "equinox": "J2000",
        "orbit_class": {
            "orbit_class_type": "APO",
            "orbit_class_description": "Near-Earth asteroid orbits which cross the Earth’s orbit similar to that of 1862 Apollo",
            "orbit_class_range": "a (semi-major axis) > 1.0 AU; q (perihelion) < 1.017 AU"
        }
    },
    "is_sentry_object": false
}